NORAD_CAT_ID,OBJECT_NAME,OBJECT_TYPE,EPOCH,MEAN_MOTION,ECCENTRICITY,INCLINATION,RA_OF_ASC_NODE,ARG_OF_PERICENTER,MEAN_ANOMALY,BSTAR,MEAN_MOTION_DOT,MEAN_MOTION_DDOT,TLE_LINE0,TLE_LINE1,TLE_LINE2,SEMIMAJOR_AXIS,PERIOD,APOGEE,PERIGEE,DECAYED
55439.0,STARLINK-5634,PAYLOAD,2023-12-19 03:12:36,14.98326082,0.0002554,70.0008,350.7543,248.9488,111.1398,1.0983e-05,3.8e-07,0.0,0 STARLINK-5634,1 55439U 23014BA  23353.13375768  .00000038  00000-0  10983-4 0  9998,2 55439  70.0008 350.7543 0002554 248.9488 111.1398 14.98326082 48569,6950.205,96.107,573.845,570.295,0.0
55439.0,STARLINK-5634,PAYLOAD,2023-12-19 09:37:09,14.98324105,0.0002584,70.0008,350.081,252.0748,108.0129,-2.4314e-05,-3.83e-06,0.0,0 STARLINK-5634,1 55439U 23014BA  23353.40080040 -.00000383  00000-0 -24314-4 0  9992,2 55439  70.0008 350.0810 0002584 252.0748 108.0129 14.98324105 49547,6950.211,96.107,573.872,570.28,0.0
55439.0,STARLINK-5634,PAYLOAD,2023-12-20 03:14:37,14.98331906,0.000259,70.0007,348.2289,252.4254,107.6622,8.3175e-06,6e-08,0.0,0 STARLINK-5634,1 55439U 23014BA  23354.13515486  .00000006  00000-0  83175-5 0  9991,2 55439  70.0007 348.2289 0002590 252.4254 107.6622 14.98331906 48716,6950.187,96.107,573.852,570.252,0.0
55439.0,STARLINK-5634,PAYLOAD,2023-12-20 09:39:09,14.98331083,0.0002681,70.0005,347.5559,252.1509,107.9358,-2.3152e-05,-3.69e-06,0.0,0 STARLINK-5634,1 55439U 23014BA  23354.40219599 -.00000369  00000-0 -23152-4 0  9999,2 55439  70.0005 347.5559 0002681 252.1509 107.9358 14.98331083 49690,6950.19,96.107,573.918,570.191,0.0
55439.0,STARLINK-5634,PAYLOAD,2023-12-21 03:16:37,14.98334018,0.0003024,69.9998,345.7029,263.2044,96.8771,0.0001505,1.703e-05,0.0,0 STARLINK-5634,1 55439U 23014BA  23355.13654995  .00001703  00000-0  15050-3 0  9991,2 55439  69.9998 345.7029 0003024 263.2044  96.8771 14.98334018 48863,6950.18,96.107,574.147,569.944,0.0
55439.0,STARLINK-5634,PAYLOAD,2023-12-21 09:41:10,14.98324391,0.0002798,70.0001,345.0292,264.6905,95.3935,0.00048304,5.674e-05,0.0,0 STARLINK-5634,1 55439U 23014BA  23355.40358985  .00005674  00000-0  48304-3 0  9990,2 55439  70.0001 345.0292 0002798 264.6905  95.3935 14.98324391 49842,6950.21,96.107,574.02,570.131,0.0
55439.0,STARLINK-5634,PAYLOAD,2023-12-22 03:18:39,14.98326781,0.0002617,70.0013,343.1817,252.2667,107.8207,0.00011643,1.296e-05,0.0,0 STARLINK-5634,1 55439U 23014BA  23356.13795502  .00001296  00000-0  11643-3 0  9993,2 55439  70.0013 343.1817 0002617 252.2667 107.8207 14.98326781 49010,6950.203,96.107,573.887,570.249,0.0
55439.0,STARLINK-5634,PAYLOAD,2023-12-22 09:43:11,14.98325692,0.0002605,70.0012,342.5079,255.0618,105.0253,9.1656e-05,1.001e-05,0.0,0 STARLINK-5634,1 55439U 23014BA  23356.40499703  .00001001  00000-0  91656-4 0  9994,2 55439  70.0012 342.5079 0002605 255.0618 105.0253 14.98325692 49994,6950.206,96.107,573.882,570.261,0.0
55439.0,STARLINK-5634,PAYLOAD,2023-12-23 03:20:40,14.98334732,0.0002547,70.0011,340.6561,247.3288,112.7602,-1.5485e-05,-2.78e-06,0.0,0 STARLINK-5634,1 55439U 23014BA  23357.13935191 -.00000278  00000-0 -15485-4 0  9994,2 55439  70.0011 340.6561 0002547 247.3288 112.7602 14.98334732 49167,6950.178,96.107,573.813,570.273,0.0
55439.0,STARLINK-5634,PAYLOAD,2023-12-23 09:45:12,14.98334788,0.0002506,70.0008,339.9805,251.4342,108.6545,1.1062e-05,3.9e-07,0.0,0 STARLINK-5634,1 55439U 23014BA  23357.40639144  .00000039  00000-0  11062-4 0  9993,2 55439  70.0008 339.9805 0002506 251.4342 108.6545 14.98334788 50148,6950.178,96.107,573.785,570.301,0.0
55439.0,STARLINK-5634,PAYLOAD,2023-12-24 03:22:41,14.98326987,0.0002455,70.0009,338.1293,254.2606,105.8282,9.2436e-05,1.01e-05,0.0,0 STARLINK-5634,1 55439U 23014BA  23358.14075448  .00001010  00000-0  92436-4 0  9990,2 55439  70.0009 338.1293 0002455 254.2606 105.8282 14.98326987 49314,6950.202,96.107,573.773,570.361,0.0
55439.0,STARLINK-5634,PAYLOAD,2023-12-24 09:47:13,14.98329283,0.0002425,70.0009,337.4561,251.8694,108.2201,8.7682e-05,9.53e-06,0.0,0 STARLINK-5634,1 55439U 23014BA  23358.40779359  .00000953  00000-0  87682-4 0  9993,2 55439  70.0009 337.4561 0002425 251.8694 108.2201 14.98329283 50290,6950.195,96.107,573.746,570.375,0.0
55439.0,STARLINK-5634,PAYLOAD,2023-12-25 03:24:41,14.98332593,0.0002444,70.0008,335.6039,252.2597,107.8295,9.2482e-05,1.011e-05,0.0,0 STARLINK-5634,1 55439U 23014BA  23359.14215098  .00001011  00000-0  92482-4 0  9990,2 55439  70.0008 335.6039 0002444 252.2597 107.8295 14.98332593 49460,6950.185,96.107,573.748,570.351,0.0
55439.0,STARLINK-5634,PAYLOAD,2023-12-25 08:13:05,14.98333963,0.0002477,70.0003,335.0975,259.667,100.4209,0.00011058,1.227e-05,0.0,0 STARLINK-5634,1 55439U 23014BA  23359.34242982  .00001227  00000-0  11058-3 0  9992,2 55439  70.0003 335.0975 0002477 259.6670 100.4209 14.98333963 50432,6950.181,96.107,573.767,570.324,0.0
55439.0,STARLINK-5634,PAYLOAD,2023-12-25 22:38:18,14.98327911,0.0002353,70.0006,333.5825,258.7661,101.3233,9.6813e-05,1.062e-05,0.0,0 STARLINK-5634,1 55439U 23014BA  23359.94327301  .00001062  00000-0  96813-4 0  9997,2 55439  70.0006 333.5825 0002353 258.7661 101.3233 14.98327911 50528,6950.199,96.107,573.7,570.429,0.0
55439.0,STARLINK-5634,PAYLOAD,2023-12-26 03:26:43,14.98325531,0.0002457,70.0004,333.0777,261.9803,98.1078,5.993e-05,6.22e-06,0.0,0 STARLINK-5634,1 55439U 23014BA  23360.14355555  .00000622  00000-0  59930-4 0  9993,2 55439  70.0004 333.0777 0002457 261.9803  98.1078 14.98325531 49610,6950.207,96.107,573.779,570.364,0.0
55439.0,STARLINK-5634,PAYLOAD,2023-12-26 08:15:07,14.98326296,0.0002448,70.0006,332.573,262.5952,97.4929,8.0919e-05,8.73e-06,0.0,0 STARLINK-5634,1 55439U 23014BA  23360.34383525  .00000873  00000-0  80919-4 0  9992,2 55439  70.0006 332.5730 0002448 262.5952  97.4929 14.98326296 50581,6950.204,96.107,573.771,570.368,0.0
55439.0,STARLINK-5634,PAYLOAD,2023-12-26 22:40:19,14.98331592,0.0002595,70.0004,331.0592,265.1619,94.9243,8.0911e-06,4e-08,0.0,0 STARLINK-5634,1 55439U 23014BA  23360.94467315  .00000004  00000-0  80911-5 0  9997,2 55439  70.0004 331.0592 0002595 265.1619  94.9243 14.98331592 50677,6950.188,96.107,573.857,570.249,0.0
55439.0,STARLINK-5634,PAYLOAD,2023-12-27 03:28:43,14.98339682,0.0002173,70.0016,330.5556,251.9868,108.1054,0.00012632,1.415e-05,0.0,0 STARLINK-5634,1 55439U 23014BA  23361.14494470  .00001415  00000-0  12632-3 0  9992,2 55439  70.0016 330.5556 0002173 251.9868 108.1054 14.98339682 49769,6950.163,96.106,573.538,570.518,0.0
55439.0,STARLINK-5634,PAYLOAD,2023-12-27 08:17:05,14.98359026,0.0002746,70.0001,330.0486,264.5983,95.4863,0.00028086,3.262e-05,0.0,0 STARLINK-5634,1 55439U 23014BA  23361.34520581  .00003262  00000-0  28086-3 0  9999,2 55439  70.0001 330.0486 0002746 264.5983  95.4863 14.98359026 49797,6950.103,96.105,573.877,570.06,0.0
55439.0,STARLINK-5634,PAYLOAD,2023-12-27 22:42:20,14.98324402,0.0002835,70.0015,328.5317,262.4645,97.6192,5.6149e-05,5.77e-06,0.0,0 STARLINK-5634,1 55439U 23014BA  23361.94606971  .00000577  00000-0  56149-4 0  9991,2 55439  70.0015 328.5317 0002835 262.4645  97.6192 14.98324402 50823,6950.21,96.107,574.046,570.105,0.0
55439.0,STARLINK-5634,PAYLOAD,2023-12-28 03:30:45,14.98319012,0.0002609,70.0008,328.0288,258.9534,101.1331,-3.2717e-05,-4.83e-06,0.0,0 STARLINK-5634,1 55439U 23014BA  23362.14635707 -.00000483  00000-0 -32717-4 0  9996,2 55439  70.0008 328.0288 0002609 258.9534 101.1331 14.98319012 49918,6950.227,96.108,573.905,570.279,0.0
55439.0,STARLINK-5634,PAYLOAD,2023-12-28 08:19:08,14.98349999,0.0002332,70.0005,327.5245,257.9727,102.1171,-0.00050282,-6.09e-05,0.0,0 STARLINK-5634,1 55439U 23014BA  23362.34662688 -.00006090  00000-0 -50282-3 0  9992,2 55439  70.0005 327.5245 0002332 257.9727 102.1171 14.98349999 49941,6950.131,96.106,573.617,570.375,0.0
55439.0,STARLINK-5634,PAYLOAD,2023-12-28 22:44:21,14.98326656,0.0002824,70.0003,326.0083,266.5463,93.5373,-2.5084e-05,-3.92e-06,0.0,0 STARLINK-5634,1 55439U 23014BA  23362.94747316 -.00000392  00000-0 -25084-4 0  9992,2 55439  70.0003 326.0083 0002824 266.5463  93.5373 14.98326656 50979,6950.203,96.107,574.031,570.105,0.0
55439.0,STARLINK-5634,PAYLOAD,2023-12-29 03:32:45,14.9832487,0.000283,70.0004,325.5037,264.9774,95.1062,-4.6499e-06,-1.48e-06,0.0,0 STARLINK-5634,1 55439U 23014BA  23363.14775405 -.00000148  00000-0 -46499-5 0  9998,2 55439  70.0004 325.5037 0002830 264.9774  95.1062 14.98324870 50066,6950.209,96.107,574.041,570.107,0.0
55439.0,STARLINK-5634,PAYLOAD,2023-12-29 08:21:09,14.98328242,0.000257,70.0011,324.9989,259.1796,100.9074,1.2798e-05,6e-07,0.0,0 STARLINK-5634,1 55439U 23014BA  23363.34803220  .00000060  00000-0  12798-4 0  9992,2 55439  70.0011 324.9989 0002570 259.1796 100.9074 14.98328242 51037,6950.198,96.107,573.85,570.277,0.0
55439.0,STARLINK-5634,PAYLOAD,2023-12-29 22:46:21,14.98344366,0.0003015,70.0005,323.4834,263.4903,96.5913,-0.00019542,-2.425e-05,0.0,0 STARLINK-5634,1 55439U 23014BA  23363.94886561 -.00002425  00000-0 -19542-3 0  9999,2 55439  70.0005 323.4834 0003015 263.4903  96.5913 14.98344366 51123,6950.148,96.106,574.109,569.918,0.0
55439.0,STARLINK-5634,PAYLOAD,2023-12-30 03:34:46,14.9833138,0.0002934,70.0006,322.9787,263.9674,96.115,3.5421e-05,3.3e-06,0.0,0 STARLINK-5634,1 55439U 23014BA  23364.14914730  .00000330  00000-0  35421-4 0  9998,2 55439  70.0006 322.9787 0002934 263.9674  96.1150 14.98331380 50214,6950.189,96.107,574.093,570.014,0.0
55439.0,STARLINK-5634,PAYLOAD,2023-12-30 06:47:01,14.98344891,0.000299,70.0006,322.642,263.159,96.9229,-0.00013958,-1.759e-05,0.0,0 STARLINK-5634,1 55439U 23014BA  23364.28266194 -.00001759  00000-0 -13958-3 0  9995,2 55439  70.0006 322.6420 0002990 263.1590  96.9229 14.98344891 50234,6950.147,96.106,574.09,569.934,0.0
55439.0,STARLINK-5634,PAYLOAD,2023-12-30 22:48:23,14.98328331,0.0002683,70.0009,320.9593,257.5997,102.4862,9.1697e-05,1.001e-05,0.0,0 STARLINK-5634,1 55439U 23014BA  23364.95026958  .00001001  00000-0  91697-4 0  9996,2 55439  70.0009 320.9593 0002683 257.5997 102.4862 14.98328331 51278,6950.198,96.107,573.928,570.198,0.0
